*******************************************************************************
Ephemeris / WWW_USER Mon Jul 15 19:10:09 2024 Pasadena, USA      / Horizons    
*******************************************************************************
Target body name: (2018 RY7)                      {source: JPL#20}
Center body name: Earth (399)                     {source: DE441}
Center-site name: Gemini South Obs., Cerro Pachon
*******************************************************************************
Start time      : A.D. 2018-Dec-23 23:54:00.0000 UT      
Stop  time      : A.D. 2018-Dec-24 09:30:00.0000 UT      
Step-size       : 1 minutes
*******************************************************************************
Target pole/equ : undefined
Target radii    : undefined                                                    
Center geodetic : 289.2634, -30.2406227, 2.71233  {E-lon(deg),Lat(deg),Alt(km)}
Center cylindric: 289.2634,5517.21435,-3194.81213 {E-lon(deg),Dxy(km),Dz(km)}
Center pole/equ : ITRF93                          {East-longitude positive}
Center radii    : 6378.137, 6378.137, 6356.752 km {Equator_a, b, pole_c}       
Target primary  : Sun
Vis. interferer : MOON (R_eq= 1737.400) km        {source: DE441}
Rel. light bend : Sun                             {source: DE441}
Rel. lght bnd GM: 1.3271E+11 km^3/s^2                                          
Small-body perts: Yes                             {source: SB441-N16}
Atmos refraction: NO (AIRLESS)
RA format       : HMS
Time format     : CAL 
Calendar mode   : Mixed Julian/Gregorian
RTS-only print  : NO       
EOP file        : eop.240715.p241008                                           
EOP coverage    : DATA-BASED 1962-JAN-20 TO 2024-JUL-15. PREDICTS-> 2024-OCT-07
Units conversion: 1 au= 149597870.700 km, c= 299792.458 km/s, 1 day= 86400.0 s 
Table cut-offs 1: Elevation (-90.0deg=NO ),Airmass (>38.000=NO), Daylight (YES)
Table cut-offs 2: Solar elongation (  0.0,180.0=NO ),Local Hour Angle( 0.0=NO )
Table cut-offs 3: RA/DEC angular rate (     0.0=NO )                           
*******************************************************************************
Initial IAU76/J2000 heliocentric ecliptic osculating elements (au, days, deg.):
  EPOCH=  2458422.5 ! 2018-Oct-31.00 (TDB)         Residual RMS= .22459        
   EC= .1470549687381346   QR= .8667733479166969   TP= 2458516.8896767548      
   OM= 2.838668085760325   W=  136.9006026425241   IN= 13.35135890147074       
  Equivalent ICRF heliocentric cartesian coordinates (au, au/d):
   X= 8.791791513870114E-01  Y= 4.508422091141234E-01  Z= 3.244113040133835E-01
  VX=-1.085418916943652E-02 VY= 1.006005810562689E-02 VZ= 7.673980932675997E-03
Asteroid physical parameters (km, seconds, rotational period in hours):        
   GM= n.a.                RAD= n.a.               ROTPER= n.a.                
   H= 24.4                 G= .150                 B-V= n.a.                   
                           ALBEDO= n.a.            STYP= n.a.                  
*******************************************************************************
 Date__(UT)__HR:MN     R.A._________(ICRF)_________DEC
******************************************************
$$SOE
 2018-Dec-23 23:54 C   19 09 48.557305 +40 15 29.77497
 2018-Dec-23 23:55 C   19 09 48.474465 +40 15 29.34370
 2018-Dec-23 23:56 C   19 09 48.391677 +40 15 28.91242
 2018-Dec-23 23:57 C   19 09 48.308942 +40 15 28.48113
 2018-Dec-23 23:58 C   19 09 48.226260 +40 15 28.04983
 2018-Dec-23 23:59 C   19 09 48.143632 +40 15 27.61851
 2018-Dec-24 00:00 C   19 09 48.061056 +40 15 27.18719
 2018-Dec-24 00:01 C   19 09 47.978534 +40 15 26.75586
 2018-Dec-24 00:02 C   19 09 47.896064 +40 15 26.32453
 2018-Dec-24 00:03 C   19 09 47.813648 +40 15 25.89320
 2018-Dec-24 00:04 C   19 09 47.731285 +40 15 25.46186
 2018-Dec-24 00:05 C   19 09 47.648974 +40 15 25.03052
 2018-Dec-24 00:06 C   19 09 47.566717 +40 15 24.59919
 2018-Dec-24 00:07 C   19 09 47.484512 +40 15 24.16786
 2018-Dec-24 00:08 C   19 09 47.402360 +40 15 23.73654
 2018-Dec-24 00:09 C   19 09 47.320261 +40 15 23.30522
 2018-Dec-24 00:10 C   19 09 47.238215 +40 15 22.87392
 2018-Dec-24 00:11 C   19 09 47.156222 +40 15 22.44262
 2018-Dec-24 00:12 C   19 09 47.074282 +40 15 22.01134
 2018-Dec-24 00:13 N   19 09 46.992394 +40 15 21.58007
 2018-Dec-24 00:14 N   19 09 46.910559 +40 15 21.14882
 2018-Dec-24 00:15 N   19 09 46.828777 +40 15 20.71758
 2018-Dec-24 00:16 N   19 09 46.747048 +40 15 20.28637
 2018-Dec-24 00:17 N   19 09 46.665371 +40 15 19.85518
 2018-Dec-24 00:18 N   19 09 46.583747 +40 15 19.42401
 2018-Dec-24 00:19 N   19 09 46.502175 +40 15 18.99286
 2018-Dec-24 00:20 N   19 09 46.420656 +40 15 18.56174
 2018-Dec-24 00:21 N   19 09 46.339189 +40 15 18.13065
 2018-Dec-24 00:22 N   19 09 46.257775 +40 15 17.69959
 2018-Dec-24 00:23 N   19 09 46.176413 +40 15 17.26856
 2018-Dec-24 00:24 N   19 09 46.095104 +40 15 16.83757
 2018-Dec-24 00:25 N   19 09 46.013846 +40 15 16.40661
 2018-Dec-24 00:26 N   19 09 45.932642 +40 15 15.97568
 2018-Dec-24 00:27 N   19 09 45.851489 +40 15 15.54480
 2018-Dec-24 00:28 N   19 09 45.770389 +40 15 15.11396
 2018-Dec-24 00:29 N   19 09 45.689341 +40 15 14.68315
 2018-Dec-24 00:30 N   19 09 45.608345 +40 15 14.25240
 2018-Dec-24 00:31 N   19 09 45.527401 +40 15 13.82168
 2018-Dec-24 00:32 N   19 09 45.446509 +40 15 13.39102
 2018-Dec-24 00:33 N   19 09 45.365669 +40 15 12.96040
 2018-Dec-24 00:34 N   19 09 45.284881 +40 15 12.52983
 2018-Dec-24 00:35 N   19 09 45.204145 +40 15 12.09932
 2018-Dec-24 00:36 N   19 09 45.123460 +40 15 11.66886
 2018-Dec-24 00:37 N   19 09 45.042828 +40 15 11.23845
 2018-Dec-24 00:38 N   19 09 44.962247 +40 15 10.80810
 2018-Dec-24 00:39 N   19 09 44.881718 +40 15 10.37782
 2018-Dec-24 00:40 N   19 09 44.801240 +40 15 09.94759
 2018-Dec-24 00:41 N   19 09 44.720814 +40 15 09.51742
 2018-Dec-24 00:42 N   19 09 44.640440 +40 15 09.08732
 2018-Dec-24 00:43 N   19 09 44.560117 +40 15 08.65728
 2018-Dec-24 00:44 Nm  19 09 44.479845 +40 15 08.22732
 2018-Dec-24 00:45 Nm  19 09 44.399625 +40 15 07.79742
 2018-Dec-24 00:46 Nm  19 09 44.319455 +40 15 07.36759
 2018-Dec-24 00:47 Am  19 09 44.239337 +40 15 06.93783
 2018-Dec-24 00:48 Am  19 09 44.159271 +40 15 06.50815
 2018-Dec-24 00:49 Am  19 09 44.079255 +40 15 06.07854
 2018-Dec-24 00:50 Am  19 09 43.999290 +40 15 05.64902
 2018-Dec-24 00:51 Am  19 09 43.919376 +40 15 05.21957
 2018-Dec-24 00:52 Am  19 09 43.839513 +40 15 04.79020
 2018-Dec-24 00:53 Am  19 09 43.759701 +40 15 04.36091
 2018-Dec-24 00:54 Am  19 09 43.679939 +40 15 03.93171
 2018-Dec-24 00:55 Am  19 09 43.600228 +40 15 03.50259
 2018-Dec-24 00:56 Am  19 09 43.520568 +40 15 03.07356
 2018-Dec-24 00:57 Am  19 09 43.440958 +40 15 02.64462
 2018-Dec-24 00:58 Am  19 09 43.361399 +40 15 02.21578
 2018-Dec-24 00:59 Am  19 09 43.281890 +40 15 01.78702
 2018-Dec-24 01:00 Am  19 09 43.202431 +40 15 01.35836
 2018-Dec-24 01:01 Am  19 09 43.123022 +40 15 00.92979
 2018-Dec-24 01:02 Am  19 09 43.043664 +40 15 00.50132
 2018-Dec-24 01:03 Am  19 09 42.964356 +40 15 00.07295
 2018-Dec-24 01:04 Am  19 09 42.885097 +40 14 59.64468
 2018-Dec-24 01:05 Am  19 09 42.805889 +40 14 59.21651
 2018-Dec-24 01:06 Am  19 09 42.726730 +40 14 58.78845
 2018-Dec-24 01:07 Am  19 09 42.647621 +40 14 58.36049
 2018-Dec-24 01:08 Am  19 09 42.568561 +40 14 57.93264
 2018-Dec-24 01:09 Am  19 09 42.489552 +40 14 57.50490
 2018-Dec-24 01:10 Am  19 09 42.410591 +40 14 57.07727
 2018-Dec-24 01:11 Am  19 09 42.331680 +40 14 56.64975
 2018-Dec-24 01:12 Am  19 09 42.252818 +40 14 56.22234
 2018-Dec-24 01:13 Am  19 09 42.174006 +40 14 55.79505
 2018-Dec-24 01:14 Am  19 09 42.095243 +40 14 55.36788
 2018-Dec-24 01:15 Am  19 09 42.016528 +40 14 54.94082
 2018-Dec-24 01:16 Am  19 09 41.937863 +40 14 54.51388
 2018-Dec-24 01:17 Am  19 09 41.859246 +40 14 54.08707
 2018-Dec-24 01:18 Am  19 09 41.780678 +40 14 53.66038
 2018-Dec-24 01:19 Am  19 09 41.702159 +40 14 53.23382
 2018-Dec-24 01:20 Am  19 09 41.623688 +40 14 52.80738
 2018-Dec-24 01:21 Am  19 09 41.545266 +40 14 52.38107
 2018-Dec-24 01:22 Am  19 09 41.466892 +40 14 51.95488
 2018-Dec-24 01:23  m  19 09 41.388567 +40 14 51.52883
 2018-Dec-24 01:24  m  19 09 41.310289 +40 14 51.10292
 2018-Dec-24 01:25  m  19 09 41.232060 +40 14 50.67713
 2018-Dec-24 01:26  m  19 09 41.153879 +40 14 50.25149
 2018-Dec-24 01:27  m  19 09 41.075745 +40 14 49.82598
 2018-Dec-24 01:28  m  19 09 40.997660 +40 14 49.40061
 2018-Dec-24 01:29  m  19 09 40.919622 +40 14 48.97538
 2018-Dec-24 01:30  m  19 09 40.841631 +40 14 48.55029
 2018-Dec-24 01:31  m  19 09 40.763688 +40 14 48.12535
 2018-Dec-24 01:32  m  19 09 40.685792 +40 14 47.70055
 2018-Dec-24 01:33  m  19 09 40.607944 +40 14 47.27590
 2018-Dec-24 01:34  m  19 09 40.530143 +40 14 46.85139
 2018-Dec-24 01:35  m  19 09 40.452388 +40 14 46.42704
 2018-Dec-24 01:36  m  19 09 40.374681 +40 14 46.00284
 2018-Dec-24 01:37  m  19 09 40.297020 +40 14 45.57879
 2018-Dec-24 01:38  m  19 09 40.219406 +40 14 45.15489
 2018-Dec-24 01:39  m  19 09 40.141839 +40 14 44.73116
 2018-Dec-24 01:40  m  19 09 40.064318 +40 14 44.30758
 2018-Dec-24 01:41  m  19 09 39.986844 +40 14 43.88416
 2018-Dec-24 01:42  m  19 09 39.909415 +40 14 43.46089
 2018-Dec-24 01:43  m  19 09 39.832033 +40 14 43.03780
 2018-Dec-24 01:44  m  19 09 39.754697 +40 14 42.61486
 2018-Dec-24 01:45  m  19 09 39.677407 +40 14 42.19209
 2018-Dec-24 01:46  m  19 09 39.600162 +40 14 41.76949
 2018-Dec-24 01:47  m  19 09 39.522963 +40 14 41.34706
 2018-Dec-24 01:48  m  19 09 39.445810 +40 14 40.92479
 2018-Dec-24 01:49  m  19 09 39.368702 +40 14 40.50270
 2018-Dec-24 01:50  m  19 09 39.291640 +40 14 40.08078
 2018-Dec-24 01:51  m  19 09 39.214622 +40 14 39.65903
 2018-Dec-24 01:52  m  19 09 39.137650 +40 14 39.23746
 2018-Dec-24 01:53  m  19 09 39.060722 +40 14 38.81606
 2018-Dec-24 01:54  m  19 09 38.983839 +40 14 38.39485
 2018-Dec-24 01:55  m  19 09 38.907001 +40 14 37.97381
 2018-Dec-24 01:56  m  19 09 38.830207 +40 14 37.55296
